{
  "type": "FeatureCollection",
  "features": [
    {
      "type": "Feature",
      "properties": {
        "norad_id": 2807,
        "name": "OPS 7218 (TRANSIT 16)",
        "group": "nnss",
        "lat": 54.336633158798605,
        "lon": -5.253364306333108,
        "alt_km": 1062.2536654796622,
        "timestamp": "2025-12-04T10:51:50.373959+00:00",
        "meta_object_name": "OPS 7218 (TRANSIT 16)",
        "meta_object_id": "1967-048A",
        "meta_epoch": "2025-12-04T02:00:07.320384",
        "meta_mean_motion": 13.50719782,
        "meta_eccentricity": 0.0021506,
        "meta_inclination": 89.6734,
        "meta_ra_of_asc_node": 354.3034,
        "meta_arg_of_pericenter": 137.388,
        "meta_mean_anomaly": 282.8204,
        "meta_ephemeris_type": 0,
        "meta_classification_type": "U",
        "meta_norad_cat_id": 2807,
        "meta_element_set_no": 999,
        "meta_rev_at_epoch": 88159,
        "meta_bstar": 0.0002602,
        "meta_mean_motion_dot": 1.78e-06,
        "meta_mean_motion_ddot": 0,
        "tle_line1": "1 02807U 67048A   25338.08341806  .00000178  00000+0  26020-3 0  9991",
        "tle_line2": "2 02807  89.6734 354.3034 0021506 137.3880 282.8204 13.50719782881592"
      },
      "geometry": {
        "type": "Point",
        "coordinates": [
          -5.253364306333108,
          54.336633158798605
        ]
      }
    },
    {
      "type": "Feature",
      "properties": {
        "norad_id": 2965,
        "name": "OPS 4947 (TRANSIT 17)",
        "group": "nnss",
        "lat": 38.013947449498005,
        "lon": 25.65356190198652,
        "alt_km": 1082.3317279637185,
        "timestamp": "2025-12-04T10:51:50.373982+00:00",
        "meta_object_name": "OPS 4947 (TRANSIT 17)",
        "meta_object_id": "1967-092A",
        "meta_epoch": "2025-12-04T03:37:29.284896",
        "meta_mean_motion": 13.53450417,
        "meta_eccentricity": 0.00458,
        "meta_inclination": 89.2506,
        "meta_ra_of_asc_node": 25.0903,
        "meta_arg_of_pericenter": 260.3204,
        "meta_mean_anomaly": 108.6282,
        "meta_ephemeris_type": 0,
        "meta_classification_type": "U",
        "meta_norad_cat_id": 2965,
        "meta_element_set_no": 999,
        "meta_rev_at_epoch": 86981,
        "meta_bstar": 0.00028703,
        "meta_mean_motion_dot": 2.05e-06,
        "meta_mean_motion_ddot": 0,
        "tle_line1": "1 02965U 67092A   25338.15103339  .00000205  00000+0  28703-3 0  9991",
        "tle_line2": "2 02965  89.2506  25.0903 0045800 260.3204 108.6282 13.53450417869819"
      },
      "geometry": {
        "type": "Point",
        "coordinates": [
          25.65356190198652,
          38.013947449498005
        ]
      }
    },
    {
      "type": "Feature",
      "properties": {
        "norad_id": 3133,
        "name": "OPS 7034 (TRANSIT 18)",
        "group": "nnss",
        "lat": -63.903838619358744,
        "lon": 93.56058232777494,
        "alt_km": 1039.0400594419161,
        "timestamp": "2025-12-04T10:51:50.373996+00:00",
        "meta_object_name": "OPS 7034 (TRANSIT 18)",
        "meta_object_id": "1968-012A",
        "meta_epoch": "2025-12-04T02:36:41.851008",
        "meta_mean_motion": 13.51562737,
        "meta_eccentricity": 0.007305,
        "meta_inclination": 90.027,
        "meta_ra_of_asc_node": 273.6148,
        "meta_arg_of_pericenter": 194.2556,
        "meta_mean_anomaly": 176.9062,
        "meta_ephemeris_type": 0,
        "meta_classification_type": "U",
        "meta_norad_cat_id": 3133,
        "meta_element_set_no": 999,
        "meta_rev_at_epoch": 56802,
        "meta_bstar": 0.00021236,
        "meta_mean_motion_dot": 1.5e-06,
        "meta_mean_motion_ddot": 0,
        "tle_line1": "1 03133U 68012A   25338.10881772  .00000150  00000+0  21236-3 0  9994",
        "tle_line2": "2 03133  90.0270 273.6148 0073050 194.2556 176.9062 13.51562737568020"
      },
      "geometry": {
        "type": "Point",
        "coordinates": [
          93.56058232777494,
          -63.903838619358744
        ]
      }
    },
    {
      "type": "Feature",
      "properties": {
        "norad_id": 4507,
        "name": "NNSS 19 (TRANSIT 19)",
        "group": "nnss",
        "lat": -40.295692494916565,
        "lon": 54.523226242443876,
        "alt_km": 1088.20259758652,
        "timestamp": "2025-12-04T10:51:50.374008+00:00",
        "meta_object_name": "NNSS 19 (TRANSIT 19)",
        "meta_object_id": "1970-067A",
        "meta_epoch": "2025-12-03T23:05:56.276160",
        "meta_mean_motion": 13.51311536,
        "meta_eccentricity": 0.0171147,
        "meta_inclination": 90.0056,
        "meta_ra_of_asc_node": 234.5277,
        "meta_arg_of_pericenter": 318.9954,
        "meta_mean_anomaly": 39.8432,
        "meta_ephemeris_type": 0,
        "meta_classification_type": "U",
        "meta_norad_cat_id": 4507,
        "meta_element_set_no": 999,
        "meta_rev_at_epoch": 72103,
        "meta_bstar": 0.00032729,
        "meta_mean_motion_dot": 2.41e-06,
        "meta_mean_motion_ddot": 0,
        "tle_line1": "1 04507U 70067A   25337.96245690  .00000241  00000+0  32729-3 0  9999",
        "tle_line2": "2 04507  90.0056 234.5277 0171147 318.9954  39.8432 13.51311536721039"
      },
      "geometry": {
        "type": "Point",
        "coordinates": [
          54.523226242443876,
          -40.295692494916565
        ]
      }
    },
    {
      "type": "Feature",
      "properties": {
        "norad_id": 6909,
        "name": "NNSS 20 (TRANSIT 20)",
        "group": "nnss",
        "lat": 54.061238800005015,
        "lon": -104.62239612815999,
        "alt_km": 912.2690318767209,
        "timestamp": "2025-12-04T10:51:50.374019+00:00",
        "meta_object_name": "NNSS 20 (TRANSIT 20)",
        "meta_object_id": "1973-081A",
        "meta_epoch": "2025-12-03T18:50:37.207968",
        "meta_mean_motion": 13.71427987,
        "meta_eccentricity": 0.01564724,
        "meta_inclination": 89.8557,
        "meta_ra_of_asc_node": 255.1885,
        "meta_arg_of_pericenter": 104.8334,
        "meta_mean_anomaly": 257.022,
        "meta_ephemeris_type": 0,
        "meta_classification_type": "U",
        "meta_norad_cat_id": 6909,
        "meta_element_set_no": 999,
        "meta_rev_at_epoch": 80238,
        "meta_bstar": 0.00028938661,
        "meta_mean_motion_dot": 2.96e-06,
        "meta_mean_motion_ddot": 0,
        "tle_line1": "1 06909U 73081A   25337.78515287  .00000296  00000+0  28939-3 0  9996",
        "tle_line2": "2 06909  89.8557 255.1885 0156472 104.8334 257.0220 13.71427987802388"
      },
      "geometry": {
        "type": "Point",
        "coordinates": [
          -104.62239612815999,
          54.061238800005015
        ]
      }
    },
    {
      "type": "Feature",
      "properties": {
        "norad_id": 10457,
        "name": "TRANSAT",
        "group": "nnss",
        "lat": -62.02493025972004,
        "lon": 78.22761962074911,
        "alt_km": 1081.472040128936,
        "timestamp": "2025-12-04T10:51:50.374030+00:00",
        "meta_object_name": "TRANSAT",
        "meta_object_id": "1977-106A",
        "meta_epoch": "2025-12-04T01:21:07.223040",
        "meta_mean_motion": 13.48941513,
        "meta_eccentricity": 0.0024605,
        "meta_inclination": 89.6482,
        "meta_ra_of_asc_node": 78.9044,
        "meta_arg_of_pericenter": 215.1183,
        "meta_mean_anomaly": 319.1093,
        "meta_ephemeris_type": 0,
        "meta_classification_type": "U",
        "meta_norad_cat_id": 10457,
        "meta_element_set_no": 999,
        "meta_rev_at_epoch": 36626,
        "meta_bstar": 0.0001922,
        "meta_mean_motion_dot": 1.31e-06,
        "meta_mean_motion_ddot": 0,
        "tle_line1": "1 10457U 77106A   25338.05633360  .00000131  00000+0  19220-3 0  9996",
        "tle_line2": "2 10457  89.6482  78.9044 0024605 215.1183 319.1093 13.48941513366264"
      },
      "geometry": {
        "type": "Point",
        "coordinates": [
          78.22761962074911,
          -62.02493025972004
        ]
      }
    },
    {
      "type": "Feature",
      "properties": {
        "norad_id": 12458,
        "name": "NOVA 1",
        "group": "nnss",
        "lat": -64.11799890868335,
        "lon": -88.19288471174477,
        "alt_km": 1185.3698294237647,
        "timestamp": "2025-12-04T10:51:50.374041+00:00",
        "meta_object_name": "NOVA 1",
        "meta_object_id": "1981-044A",
        "meta_epoch": "2025-12-03T21:32:55.161024",
        "meta_mean_motion": 13.23276955,
        "meta_eccentricity": 0.0015609,
        "meta_inclination": 89.8522,
        "meta_ra_of_asc_node": 91.5102,
        "meta_arg_of_pericenter": 125.7622,
        "meta_mean_anomaly": 356.6957,
        "meta_ephemeris_type": 0,
        "meta_classification_type": "U",
        "meta_norad_cat_id": 12458,
        "meta_element_set_no": 999,
        "meta_rev_at_epoch": 15069,
        "meta_bstar": 0.00016147,
        "meta_mean_motion_dot": 7.7e-07,
        "meta_mean_motion_ddot": 0,
        "tle_line1": "1 12458U 81044A   25337.89786066  .00000077  00000+0  16147-3 0  9992",
        "tle_line2": "2 12458  89.8522  91.5102 0015609 125.7622 356.6957 13.23276955150695"
      },
      "geometry": {
        "type": "Point",
        "coordinates": [
          -88.19288471174477,
          -64.11799890868335
        ]
      }
    }
  ]
}